GLOBALSTAR M094         
1 39074U 13005C   25056.60645566 -.00000106  00000+0 -12616-4 0  9996
2 39074  51.9951 161.8472 0000829  89.6313 270.4648 12.62268485558286
GLOBALSTAR M096         
1 39075U 13005D   25056.61970910 -.00000107  00000+0 -15339-4 0  9998
2 39075  52.0057 210.2345 0000911  80.1144 279.9825 12.62268636557204
GLOBALSTAR M078         
1 39076U 13005E   25056.35502483 -.00000137  00000+0 -18490-3 0  9999
2 39076  51.9880 295.7002 0000580 340.4540  19.6304 12.62270832555793
GLOBALSTAR M095         
1 39077U 13005F   25056.38196354 -.00000057  00000+0  25851-3 0  9998
2 39077  51.9800 292.8747 0000834  34.3417 325.7503 12.62266997555658
GLOBALSTAR M087         
1 52888U 22064A   25056.49183966 -.00000080  00000+0  13089-3 0  9991
2 52888  51.9789  73.9412 0000277  88.1690 271.9208 12.62268941130932
